NORAD_CAT_ID,OBJECT_NAME,OBJECT_TYPE,EPOCH,MEAN_MOTION,ECCENTRICITY,INCLINATION,RA_OF_ASC_NODE,ARG_OF_PERICENTER,MEAN_ANOMALY,BSTAR,MEAN_MOTION_DOT,MEAN_MOTION_DDOT,TLE_LINE0,TLE_LINE1,TLE_LINE2,SEMIMAJOR_AXIS,PERIOD,APOGEE,PERIGEE,DECAYED
53845.0,STARLINK-4753,PAYLOAD,2024-07-04 07:42:18,15.08837286,0.0001147,53.2163,167.671,91.8604,268.252,5.4285e-05,5.76e-06,0.0,0 STARLINK-4753,1 53845U 22114AD  24186.32104674  .00000576  00000-0  54285-4 0  9999,2 53845  53.2163 167.6710 0001147  91.8604 268.2520 15.08837286100370,6917.889,95.438,540.547,538.96,0.0
53845.0,STARLINK-4753,PAYLOAD,2024-07-04 15:39:14,15.0883662,0.0001143,53.2162,166.1842,91.0619,269.0504,4.9163e-05,4.95e-06,0.0,0 STARLINK-4753,1 53845U 22114AD  24186.65224782  .00000495  00000-0  49163-4 0  9997,2 53845  53.2162 166.1842 0001143  91.0619 269.0504 15.08836620100421,6917.891,95.438,540.546,538.965,0.0
53845.0,STARLINK-4753,PAYLOAD,2024-07-05 04:22:19,15.08837445,0.0001221,53.2168,163.8055,96.1178,263.9954,4.9113e-05,4.94e-06,0.0,0 STARLINK-4753,1 53845U 22114AD  24187.18216880  .00000494  00000-0  49113-4 0  9990,2 53845  53.2168 163.8055 0001221  96.1178 263.9954 15.08837445 99964,6917.888,95.438,540.598,538.909,0.0
53845.0,STARLINK-4753,PAYLOAD,2024-07-05 07:33:05,15.08840563,0.0001246,53.2169,163.211,96.0641,264.0494,7.5213e-05,9.09e-06,0.0,0 STARLINK-4753,1 53845U 22114AD  24187.31464618  .00000909  00000-0  75213-4 0  9990,2 53845  53.2169 163.2110 0001246  96.0641 264.0494 15.08840563100523,6917.879,95.438,540.606,538.882,0.0
53845.0,STARLINK-4753,PAYLOAD,2024-07-05 15:30:01,15.08839367,0.0001121,53.2161,161.7228,83.5445,276.5675,3.9591e-05,3.42e-06,0.0,0 STARLINK-4753,1 53845U 22114AD  24187.64584811  .00000342  00000-0  39591-4 0  9994,2 53845  53.2161 161.7228 0001121  83.5445 276.5675 15.08839367100577,6917.882,95.438,540.523,538.972,0.0
53845.0,STARLINK-4753,PAYLOAD,2024-07-06 07:23:52,15.08839591,0.000122,53.2163,158.75,88.1707,271.9425,4.1648e-05,3.75e-06,0.0,0 STARLINK-4753,1 53845U 22114AD  24188.30824940  .00000375  00000-0  41648-4 0  9990,2 53845  53.2163 158.7500 0001220  88.1707 271.9425 15.08839591100133,6917.882,95.438,540.591,538.903,0.0
53845.0,STARLINK-4753,PAYLOAD,2024-07-06 15:20:48,15.08836388,0.0001227,53.2164,157.2635,82.7387,277.3744,7.148e-06,-1.74e-06,0.0,0 STARLINK-4753,1 53845U 22114AD  24188.63945254 -.00000174  00000-0  71480-5 0  9994,2 53845  53.2164 157.2635 0001227  82.7387 277.3744 15.08836388100728,6917.891,95.438,540.605,538.908,0.0
53845.0,STARLINK-4753,PAYLOAD,2024-07-07 07:14:39,15.08842692,0.000118,53.2158,154.2897,89.8824,270.2304,2.4851e-05,1.08e-06,0.0,0 STARLINK-4753,1 53845U 22114AD  24189.30184933  .00000108  00000-0  24851-4 0  9993,2 53845  53.2158 154.2897 0001180  89.8824 270.2304 15.08842692100820,6917.872,95.437,540.553,538.921,0.0
53845.0,STARLINK-4753,PAYLOAD,2024-07-08 03:54:39,15.08847333,0.0001312,53.2165,150.42,99.2455,260.8685,0.00011868,1.602e-05,0.0,0 STARLINK-4753,1 53845U 22114AD  24190.16296227  .00001602  00000-0  11868-3 0  9992,2 53845  53.2165 150.4200 0001312  99.2455 260.8685 15.08847333100415,6917.858,95.437,540.631,538.815,0.0
53845.0,STARLINK-4753,PAYLOAD,2024-07-08 07:05:26,15.08848314,0.0001317,53.2166,149.8253,98.9017,261.2124,0.00012278,1.667e-05,0.0,0 STARLINK-4753,1 53845U 22114AD  24190.29544065  .00001667  00000-0  12278-3 0  9999,2 53845  53.2166 149.8253 0001317  98.9017 261.2124 15.08848314100975,6917.855,95.437,540.631,538.809,0.0
53845.0,STARLINK-4753,PAYLOAD,2024-07-08 21:23:55,15.08837091,0.0001555,53.217,147.1487,101.6219,258.4948,3.1176e-05,2.08e-06,0.0,0 STARLINK-4753,1 53845U 22114AD  24190.89161198  .00000208  00000-0  31176-4 0  9996,2 53845  53.2170 147.1487 0001555 101.6219 258.4948 15.08837091100523,6917.889,95.438,540.83,538.679,0.0
53845.0,STARLINK-4753,PAYLOAD,2024-07-09 06:56:13,15.08840726,0.000138,53.2172,145.367,90.5088,269.6062,4.0961e-05,3.64e-06,0.0,0 STARLINK-4753,1 53845U 22114AD  24191.28905059  .00000364  00000-0  40961-4 0  9997,2 53845  53.2172 145.3670 0001380  90.5088 269.6062 15.08840726101122,6917.878,95.438,540.698,538.789,0.0
53845.0,STARLINK-4753,PAYLOAD,2024-07-10 03:36:14,15.08842599,0.000131,53.2164,141.5004,88.3048,271.8094,-2.1188e-05,-6.25e-06,0.0,0 STARLINK-4753,1 53845U 22114AD  24192.15017238 -.00000625  00000-0 -21188-4 0  9999,2 53845  53.2164 141.5004 0001310  88.3048 271.8094 15.08842599100710,6917.872,95.437,540.644,538.831,0.0
53845.0,STARLINK-4753,PAYLOAD,2024-07-10 19:30:06,15.08833685,0.0001351,53.2168,138.5297,88.6646,271.4501,7.0141e-05,8.28e-06,0.0,0 STARLINK-4753,1 53845U 22114AD  24192.81257685  .00000828  00000-0  70141-4 0  9990,2 53845  53.2168 138.5297 0001351  88.6646 271.4501 15.08833685100812,6917.9,95.438,540.699,538.83,0.0
53845.0,STARLINK-4753,PAYLOAD,2024-07-11 03:27:01,15.08840636,0.0001333,53.2171,137.0438,89.3757,270.7388,0.00011482,1.54e-05,0.0,0 STARLINK-4753,1 53845U 22114AD  24193.14377234  .00001540  00000-0  11482-3 0  9994,2 53845  53.2171 137.0438 0001333  89.3757 270.7388 15.08840636101403,6917.878,95.438,540.666,538.821,0.0
53845.0,STARLINK-4753,PAYLOAD,2024-07-12 04:53:12,15.08842054,0.0001399,53.2174,132.2861,93.4442,266.671,8.055e-05,9.94e-06,0.0,0 STARLINK-4753,1 53845U 22114AD  24194.20361490  .00000994  00000-0  80550-4 0  9994,2 53845  53.2174 132.2861 0001399  93.4442 266.6710 15.08842054101029,6917.874,95.437,540.707,538.771,0.0
53845.0,STARLINK-4753,PAYLOAD,2024-07-12 12:50:08,15.08839311,0.0001295,53.2168,130.799,91.95,268.164,4.2782e-05,3.93e-06,0.0,0 STARLINK-4753,1 53845U 22114AD  24194.53481795  .00000393  00000-0  42782-4 0  9999,2 53845  53.2168 130.7990 0001295  91.9500 268.1640 15.08839311101617,6917.882,95.438,540.643,538.852,0.0
53845.0,STARLINK-4753,PAYLOAD,2024-07-13 12:40:55,15.08841077,0.00014,53.2167,126.3345,91.9208,268.1944,1.61e-05,-3.2e-07,0.0,0 STARLINK-4753,1 53845U 22114AD  24195.52841787 -.00000032  00000-0  16100-4 0  9996,2 53845  53.2167 126.3345 0001400  91.9208 268.1944 15.08841077101220,6917.877,95.437,540.711,538.774,0.0
53845.0,STARLINK-4753,PAYLOAD,2024-07-14 12:31:42,15.08845341,0.0001333,53.2169,121.8767,85.3282,274.7863,4.9297e-05,4.97e-06,0.0,0 STARLINK-4753,1 53845U 22114AD  24196.52201649  .00000497  00000-0  49297-4 0  9991,2 53845  53.2169 121.8767 0001333  85.3282 274.7863 15.08845341101911,6917.864,95.437,540.651,538.807,0.0
53845.0,STARLINK-4753,PAYLOAD,2024-07-15 01:14:46,15.08847467,0.0001333,53.2173,119.4951,91.7614,268.353,0.00012488,1.701e-05,0.0,0 STARLINK-4753,1 53845U 22114AD  24197.05193279  .00001701  00000-0  12488-3 0  9999,2 53845  53.2173 119.4951 0001333  91.7614 268.3530 15.08847467101454,6917.858,95.437,540.645,538.8,0.0
53845.0,STARLINK-4753,PAYLOAD,2024-07-15 12:22:29,15.08839496,0.0001532,53.218,117.4138,90.6592,269.4576,6.5265e-05,7.51e-06,0.0,0 STARLINK-4753,1 53845U 22114AD  24197.51561992  .00000751  00000-0  65265-4 0  9997,2 53845  53.2180 117.4138 0001532  90.6592 269.4576 15.08839496101524,6917.882,95.438,540.807,538.687,0.0
53845.0,STARLINK-4753,PAYLOAD,2024-07-15 21:54:48,15.08834627,0.0001426,53.2172,115.6303,92.0205,268.0951,7.7122e-05,9.39e-06,0.0,0 STARLINK-4753,1 53845U 22114AD  24197.91306250  .00000939  00000-0  77122-4 0  9998,2 53845  53.2172 115.6303 0001426  92.0205 268.0951 15.08834627102128,6917.897,95.438,540.748,538.775,0.0
53845.0,STARLINK-4753,PAYLOAD,2024-07-16 04:16:20,15.08842383,0.0001379,53.2178,114.4391,96.3096,263.8053,2.5534e-05,1.18e-06,0.0,0 STARLINK-4753,1 53845U 22114AD  24198.17801842  .00000118  00000-0  25534-4 0  9993,2 53845  53.2178 114.4391 0001379  96.3096 263.8053 15.08842383102168,6917.873,95.437,540.692,538.784,0.0
53845.0,STARLINK-4753,PAYLOAD,2024-07-16 21:45:34,15.0884923,0.000119,53.216,111.1682,92.6712,267.4416,7.2428e-05,8.65e-06,0.0,0 STARLINK-4753,1 53845U 22114AD  24198.90665320  .00000865  00000-0  72428-4 0  9996,2 53845  53.2160 111.1682 0001190  92.6712 267.4416 15.08849230101734,6917.852,95.437,540.54,538.894,0.0
53845.0,STARLINK-4753,PAYLOAD,2024-07-16 23:20:57,15.08850894,0.0001079,53.2155,110.8722,89.6698,270.4418,0.00010062,1.314e-05,0.0,0 STARLINK-4753,1 53845U 22114AD  24198.97288995  .00001314  00000-0  10062-3 0  9997,2 53845  53.2155 110.8722 0001079  89.6698 270.4418 15.08850894102289,6917.847,95.437,540.459,538.966,0.0
53845.0,STARLINK-4753,PAYLOAD,2024-07-17 21:36:22,15.08836221,0.0001457,53.217,106.7088,119.1369,240.9769,6.3498e-05,7.23e-06,0.0,0 STARLINK-4753,1 53845U 22114AD  24199.90026040  .00000723  00000-0  63498-4 0  9997,2 53845  53.2170 106.7088 0001457 119.1369 240.9769 15.08836221101883,6917.892,95.438,540.765,538.749,0.0
53845.0,STARLINK-4753,PAYLOAD,2024-07-18 00:47:08,15.0883651,0.0001087,53.2156,106.1146,73.8865,286.2246,7.2295e-05,8.63e-06,0.0,0 STARLINK-4753,1 53845U 22114AD  24200.03274166  .00000863  00000-0  72295-4 0  9998,2 53845  53.2156 106.1146 0001087  73.8865 286.2246 15.08836510102449,6917.891,95.438,540.508,539.004,0.0
53845.0,STARLINK-4753,PAYLOAD,2024-07-18 21:27:09,15.08844845,0.0001084,53.2167,102.2518,69.917,290.1939,2.9437e-06,-2.41e-06,0.0,0 STARLINK-4753,1 53845U 22114AD  24200.89385923 -.00000241  00000-0  29437-5 0  9998,2 53845  53.2167 102.2518 0001084  69.9170 290.1939 15.08844845102570,6917.866,95.437,540.48,538.981,0.0
53845.0,STARLINK-4753,PAYLOAD,2024-07-19 03:48:41,15.08859441,0.0001241,53.216,101.058,96.9218,263.1915,0.00023215,3.411e-05,0.0,0 STARLINK-4753,1 53845U 22114AD  24201.15880813  .00003411  00000-0  23215-3 0  9993,2 53845  53.2160 101.0580 0001241  96.9218 263.1915 15.08859441102074,6917.821,95.436,540.544,538.827,0.0
53845.0,STARLINK-4753,PAYLOAD,2024-07-19 10:10:14,15.08842767,0.0001326,53.2143,99.8638,50.3791,309.7318,0.00017472,2.494e-05,0.0,0 STARLINK-4753,1 53845U 22114AD  24201.42377870  .00002494  00000-0  17472-3 0  9995,2 53845  53.2143  99.8638 0001326  50.3791 309.7318 15.08842767102119,6917.872,95.437,540.654,538.82,0.0
